#dP2020  2 20  0  0  0.00000000      96 __u+U ITR00 FIT  IAC
## 2093 345600.00000000   900.00000000 58899 0.0000000000000
+  115   C01C02C03C04C05C06C07C08C09C10C11C12C13C14C16C18C19
+        C20C21C22C23C24C25C26C27C28C29C30C32C33C34C35C36C37
+        E01E02E03E04E05E07E08E09E11E12E13E14E15E18E19E21E24
+        E25E26E27E30E31E33E36G01G02G03G04G05G06G07G08G09G10
+        G11G12G13G14G15G16G17G18G19G20G21G22G23G24G25G26G27
+        G28G29G30G31G32J01J02J03R01R02R03R04R05R07R08R09R11
+        R12R13R14R15R16R17R18R19R20R21R22R23R26  0  0  0  0
++        14  0  0 13 13  8  8  9  8  8  8  8  8  8  8  0  7
++         7  8  8  8  8  8  8  8  8  8  8  8  8  8  8  8  8
++         5  5  5  5  5  5  5  4  4  4  5  4  5  5  5  5  4
++         4  5  5  5  5  5  5  3  4  3  3  4  3  4  3  3  3
++         3  3  4  4  4  4  3  4  3  3  3  3  3  3  3  3  3
++         3  3  3  4  3  9  9  9  6  6  6  6  5  5  5  5  5
++         6  6  5  5  6  5  6  6  6  5  5  5  8  0  0  0  0
%c M  cc GPS ccc cccc cccc cccc cccc ccccc ccccc ccccc ccccc
%c cc cc ccc ccc cccc cccc cccc cccc ccccc ccccc ccccc ccccc
%f  0.0000000  0.000000000  0.00000000000  0.000000000000000
%f  0.0000000  0.000000000  0.00000000000  0.000000000000000
%i    0    0    0    0      0      0      0      0         0
%i    0    0    0    0      0      0      0      0         0
/* INFORMATION & ANALYSIS CENTER (IAC)            RAPID DATA
/* S/V CLOCKS ARE ALIGNED TO GNSS TIME                      
/* G:C1WC2W R:C1PC2P E:C1XC5X C:C2IC6I J:C1CC2S             
/* PCV:IGS14_2091 OL/AL:FES2004  NONE     YN ORB:CoN CLK:CoN
*  2020 02 20 19  0  0.00000000
PC01 -32340.435481  27049.401885   -299.188422    223.882637
PC02   4590.560024  41921.343837   1179.028268 999999.999999
PC03 -14800.183883  39491.672742    757.472586 999999.999999
PC04 -39601.975443  14430.326919     10.395200   -415.958754
PC05  21848.267256  36069.395182   1267.836701   -375.035484
PC06 -16979.353870  38573.530451   4879.191421    244.284722
PC07  -8845.443669  26241.793514 -31493.327730    -86.703229
PC08 -23131.764345  21925.889434  27517.175248   -125.265969
PC09  -9189.549825  40392.269276  -8618.037675    347.924615
PC10   4507.823963  32735.938331 -25787.487802   -680.074845
PC11   8428.551786 -24030.532864 -11402.975526   -194.286911
PC12  19236.714392 -19099.491086   6715.817820    321.398973
PC13  -8253.136316  24401.639196  33416.442859    278.490012
PC14  -2290.675885 -25061.539076 -12085.901929    171.060399
PC16 -14313.826941  39741.613663   1698.629896   -768.107409
PC18      0.000000      0.000000      0.000000 999999.999999
PC19   9286.480104  26051.634648   3695.715414    330.914861
PC20  -4557.427792  20503.602462  18377.863914   -741.942886
PC21  16140.279383  -2564.583950 -22599.977566    -95.404657
PC22  17969.663719  16544.567691 -13466.284029   -885.948321
PC23 -24617.930613  -9272.654127   9302.270908   -896.930006
PC24  13295.242782 -13309.628900  20609.985169   -932.899188
PC25  -8906.115126 -15791.689940  21202.864693   -522.760668
PC26  26313.466968  -3905.169270   8484.677605    578.543353
PC27 -20939.687284  11450.900670 -14491.882067    281.807340
PC28 -14359.075666  -7148.064993 -22828.274837    272.746503
PC29    268.945599  21491.304255  17800.130952    190.351016
PC30 -14512.966684  23763.291673   2048.374446    274.907034
PC32 -16151.696457   2689.225928  22612.595255   -875.244506
PC33  -9400.521145 -26019.329531  -3710.496491   -932.049234
PC34  14324.302911 -23807.312014  -2444.486298   -486.349118
PC35  14541.815335   6862.317822  22809.363866   -896.887529
PC36   8323.558211  16009.219495 -21268.736076   -828.107809
PC37 -26585.977451   2894.735670  -7925.274906   -876.110216
PE01 -21467.685965   3042.124937 -20149.066163   -798.951755
PE02  21438.636466  -3083.654248  20180.774230    114.106159
PE03  15534.764725 -12457.006580 -21907.342789   -268.465747
PE04  -6015.401075  27714.778931   8483.567211   -469.813481
PE05  16054.216539  10294.304883 -22638.027543   -403.715108
PE07  -7191.683983 -26869.138130  10140.067605   -343.722298
PE08   5647.065259 -27840.287212  -8339.125447   6217.542214
PE09   7359.705002  26768.532539 -10247.869948   6149.936366
PE11   5662.419703  15520.059154  24564.932632   1357.288040
PE12 -14920.223078  20538.253668  15250.870099   5941.645128
PE13  -5446.349590 -15544.522371 -24579.988292    398.540310
PE14   1501.999546  21927.820010  10842.937235   -912.544442
PE15  14672.382861 -20556.929029 -15417.251802    876.607265
PE18 -10867.473224 -21144.659135 -21541.025559  -1010.039851
PE19 -15940.656972  10165.922527  22778.371203     -1.447403
PE21 -26687.864697 -12038.376189  -4338.983655   -583.763077
PE24  16095.563786  20394.247112 -14223.490661   5599.873069
PE25  26678.340727  12118.562120   4227.167571   -504.495621
PE26 -22616.919559  -1414.810480 -19030.893736   3506.735794
PE27 -16270.630875 -20255.668535  14171.470479    278.209281
PE30   3964.548728 -16464.009116  24264.106708   4127.686700
PE31  -3638.945296  16544.867927 -24270.519129   -471.771398
PE33 -26188.349038  13523.775895  -2773.705570   -470.183912
PE36  22371.496241   1425.874090  19339.156039    595.779274
PG01  -2252.465165 -14775.486905 -22150.418963   -301.311561
PG02 -19384.111864  14527.445321  11433.381860   -408.352439
PG03 -11117.313702 -21944.915093 -10190.376116    -99.185503
PG04  -1247.494647 -23542.737924  12216.558037    -51.630289
PG05  -8041.340096  13399.433527  21322.894400     -7.906072
PG06 -25745.799483   6604.367011    494.331311   -213.239020
PG07 -19743.659081  -7601.636969  16632.282097   -218.868811
PG08   5871.097715 -25699.146763  -1794.170893    -24.452803
PG09  -9495.165198 -15997.588217  18896.545130   -159.977923
PG10  21045.409377   7559.127677 -14429.032971   -251.867356
PG11   7023.998276 -21179.601383 -15100.498031   -355.598512
PG12   7300.604411  22318.571466 -12806.955412    149.096291
PG13 -13176.088792  22562.705727   4397.611642    -11.405760
PG14  16725.492854 -12643.638786 -15859.877972    -31.207341
PG15  -2729.465601  26091.375450  -2797.672671   -250.215187
PG16   8944.199252 -12077.496520  21646.112888   -126.634622
PG17 -15577.166817   2201.098583 -20966.235545    219.365414
PG18   6667.470138 -16714.068134 -20014.561252      3.581464
PG19 -17076.953785  10001.255286 -18010.254307   -196.027273
PG20  22267.223058  14129.498716  -4083.796468    527.872852
PG21  20632.809253   5765.069397  16330.984083    -38.314032
PG22  -4609.281112 -20359.010210 -16265.731367   -784.865141
PG23  -3683.429414 -22814.277641  13103.368698   -134.989100
PG24    672.349421  16130.992701 -21242.395133     -9.347655
PG25  17049.441755  20440.545271  -2443.290008    -12.403550
PG26  16184.536388  -4743.453994  20536.549581    152.347426
PG27  12362.869154 -21621.623858   8606.866386   -216.802376
PG28 -19557.860601  -8122.436957 -15352.015290    737.968872
PG29   6850.737283  17404.126626  18816.071701    -37.905859
PG30 -25676.986587   -171.581988   7217.951531   -157.803105
PG31  25515.922704  -7634.266769   3065.211031    -24.505418
PG32  16144.929165  -3316.713556 -20731.279484    217.376484
PJ01 -24033.197927  26051.202327  27900.097600   -325.788298
PJ02 -29342.021823  14202.506035 -22296.087537     -1.436845
PJ03 -24719.135143  32551.071778  -5647.352758     -0.616224
PR01  -6071.130720 -24758.151711  -1110.756097     57.387223
PR02 -12047.150360 -13478.819793  18007.141878    412.918703
PR03  -9974.657407   5153.463960  22946.574242     10.318369
PR04  -2056.038722  20621.656759  14899.634905     39.411218
PR05   6860.014241  24525.631141  -1641.830732     45.368294
PR07   9789.646247  -5659.115538 -22827.737216    -33.447588
PR08   2137.538838 -20632.352714 -14784.920692    -50.616734
PR09  24470.998354   7075.804295   -249.394083    117.860423
PR11   6239.823917  -9692.099169  22761.165429    -14.145310
PR12 -11607.616124 -12618.489846  18896.491647    107.429380
PR13 -23805.822633  -8364.720552   3702.811615    -35.040801
PR14 -21670.877742    480.704226 -13445.038505     48.346218
PR15  -7168.110684   9147.633943 -22690.327255    105.978709
PR16  12357.582831  12548.910443 -18535.449480     -1.604397
PR17 -19730.579704  12228.400564 -10523.550781    302.662177
PR18 -15787.663591  19023.515577   6431.002374     25.808920
PR19  -4046.693292  15615.623537  19766.562296    -80.056125
PR20  12337.954458   2205.653276  22220.975033   -404.617557
PR21  19811.604315 -12790.340229   9758.988344   -106.210507
PR22  14227.095999 -19023.188093  -9111.135466    -14.775424
PR23  -1875.305631 -12064.032669 -22396.369474    287.661694
PR26   9393.803026   5400.553952  23109.373207   -406.046358
EOF
